From:	Horizons Ephemeris System <horizons@ssd.jpl.nasa.gov>
Sent:	Wednesday, March 4, 2020 9:54 AM
Subject:	[Horizons] MAJOR BODY #C(usr={0.,-65.,.600^G}@301)_T(301) (1/1)

 Automated mail xmit by MAIL_REQUEST, PID= 26696 Wed Mar  4 07:54:26 2020
++++++++++++++++++++++++++++++++ (part 1 of 1)  +++++++++++++++++++++++++++++++
*******************************************************************************
 Revised: July 31, 2013             Moon / (Earth)                          301
 
 GEOPHYSICAL DATA (updated 2018-Aug-15):
  Vol. mean radius, km  = 1737.53+-0.03    Mass, x10^22 kg       =    7.349
  Radius (gravity), km  = 1738.0           Surface emissivity    =    0.92
  Radius (IAU), km      = 1737.4           GM, km^3/s^2          = 4902.800066
  Density, g/cm^3       =    3.3437        GM 1-sigma, km^3/s^2  =  +-0.0001  
  V(1,0)                =   +0.21          Surface accel., m/s^2 =    1.62
  Earth/Moon mass ratio = 81.3005690769    Farside crust. thick. = ~80 - 90 km
  Mean crustal density  = 2.97+-.07 g/cm^3 Nearside crust. thick.= 58+-8 km 
  Heat flow, Apollo 15  = 3.1+-.6 mW/m^2   Mean angular diameter = 31'05.2"
  Heat flow, Apollo 17  = 2.2+-.5 mW/m^2   Sid. rot. rate, rad/s = 0.0000026617
  Geometric Albedo      = 0.12             Mean solar day        = 29.5306 d
  Obliquity to orbit    = 6.67 deg         Orbit period          = 27.321582 d
  Semi-major axis, a    = 384400 km        Eccentricity          = 0.05490
  Mean motion, rad/s    = 2.6616995x10^-6  Inclination           = 5.145 deg
  Apsidal period        = 3231.50 d        Nodal period          = 6798.38 d
                                 Perihelion  Aphelion    Mean
  Solar Constant (W/m^2)         1414+-7     1323+-7     1368+-7
  Maximum Planetary IR (W/m^2)   1314        1226        1268
  Minimum Planetary IR (W/m^2)      5.2         5.2         5.2
 *******************************************************************************
 
 
*******************************************************************************
Ephemeris / MAIL_REQUEST Wed Mar  4 07:54:25 2020 Pasadena, USA  / Horizons    
*******************************************************************************
Target body name: Moon (301)                      {source: DE431mx}
Center body name: Moon (301)                      {source: DE431mx}
Center-site name: (user defined site below)
*******************************************************************************
Start time      : A.D. 2020-Jan-01 00:00:00.0000 TDB
Stop  time      : A.D. 2039-Jan-01 00:00:00.0000 TDB
Step-size       : 10000 steps
*******************************************************************************
Center geodetic : 0.00000000,-65.000000,0.6000000 {E-lon(deg),Lat(deg),Alt(km)}
Center cylindric: 0.00000000,734.510539,-1575.163 {E-lon(deg),Dxy(km),Dz(km)}
Center pole/equ : IAU_MOON                        {East-longitude positive}
Center radii    : 1737.4 x 1737.4 x 1737.4 km     {Equator, meridian, pole}    
Output units    : KM-S                                                         
Output type     : GEOMETRIC cartesian states
Output format   : 3 (position, velocity, LT, range, range-rate)
Reference frame : ICRF/J2000.0                                                 
Coordinate systm: Ecliptic and Mean Equinox of Reference Epoch                 
*******************************************************************************
JDTDB
   X     Y     Z
   VX    VY    VZ
   LT    RG    RR
*******************************************************************************
$$SOE
2463749.834000002 = A.D. 2033-Jun-01 08:00:57.6002 TDB 
  -2.810432350658213E+02  6.322344275223643E+02  1.594345736871149E+03
  -1.790436476608076E-03 -7.835469523468695E-04 -4.895237294756693E-06
   5.797343974543883E-03  1.738000000000000E+03  1.097926250618232E-20
2463750.528000002 = A.D. 2033-Jun-02 00:40:19.2002 TDB 
  -3.842080343681127E+02  5.769084324436932E+02  1.593802009944256E+03
  -1.643290198599465E-03 -1.057920824437643E-03 -1.320230021868398E-05
   5.797343974543884E-03  1.738000000000000E+03 -5.389819775762232E-20
2463751.222000002 = A.D. 2033-Jun-02 17:19:40.8002 TDB 
  -4.772767974855358E+02  5.059023661946617E+02  1.592769178023166E+03
  -1.454399775625572E-03 -1.305440744693412E-03 -2.117425799813278E-05
   5.797343974543883E-03  1.738000000000000E+03  7.585672276998696E-20
2463751.916000002 = A.D. 2033-Jun-03 09:59:02.4002 TDB 
  -5.578850769995756E+02  4.210187992528928E+02  1.591273518769426E+03
  -1.228555452528053E-03 -1.519817570132204E-03 -2.860663753554717E-05
   5.797343974543883E-03  1.738000000000000E+03  6.787180458367254E-20
2463752.610000002 = A.D. 2033-Jun-04 02:38:24.0002 TDB 
  -6.239844757802509E+02  3.244130034349635E+02  1.589353194600732E+03
  -9.714865484761930E-04 -1.695601179106968E-03 -3.530835922887685E-05
   5.797343974543884E-03  1.738000000000000E+03 -1.197737727947162E-20
2463753.304000002 = A.D. 2033-Jun-04 19:17:45.6002 TDB 
  -6.738947345142611E+02  2.185383711710514E+02  1.587057297995210E+03
  -6.897169737666309E-04 -1.828319145428824E-03 -4.110673822929362E-05
   5.797343974543884E-03  1.738000000000000E+03  7.186426367682975E-20
2463753.998000002 = A.D. 2033-Jun-05 11:57:07.2002 TDB 
  -7.063465278533603E+02  1.060842381221362E+02  1.584444608375928E+03
  -3.904004397081472E-04 -1.914590903318186E-03 -4.585207799763958E-05
   5.797343974543884E-03  1.738000000000000E+03  6.387934549051532E-20
2463754.692000002 = A.D. 2033-Jun-06 04:36:28.8002 TDB 
  -7.205138713505506E+02 -1.009232935528928E+01  1.581582089579807E+03
  -8.113943936775809E-05 -1.952214443155042E-03 -4.942170452329584E-05
   5.797343974543883E-03  1.738000000000000E+03  7.984918186314417E-21
2463755.386000002 = A.D. 2033-Jun-06 21:15:50.4002 TDB 
  -7.160352995744806E+02 -1.270390625621876E+02  1.578543165816699E+03
   2.302074826281869E-04 -1.940223246124117E-03 -5.172329799341862E-05
   5.797343974543884E-03  1.738000000000000E+03  3.992459093157209E-20
2463756.080000002 = A.D. 2033-Jun-07 13:55:12.0002 TDB 
  -6.930232572860072E+02 -2.417834996858713E+02  1.575405822047242E+03
   5.357253190814180E-04 -1.878911903651299E-03 -5.269739952971572E-05
   5.797343974543884E-03  1.738000000000000E+03  1.596983637262883E-19
2463756.774000002 = A.D. 2033-Jun-08 06:34:33.6002 TDB 
  -6.520614435507327E+02 -3.514085712259666E+02  1.572250581142669E+03
   8.276439817525546E-04 -1.769829657793201E-03 -5.231900236349102E-05
   5.797343974543883E-03  1.738000000000000E+03 -8.783410004945859E-20
2463757.468000002 = A.D. 2033-Jun-08 23:13:55.2002 TDB 
  -5.941901556185654E+02 -4.531268357286818E+02  1.569158414472069E+03
   1.098536325592461E-03 -1.615741921071770E-03 -5.059817610557403E-05
   5.797343974543884E-03  1.738000000000000E+03 -2.395475455894325E-20
2463758.162000002 = A.D. 2033-Jun-09 15:53:16.8002 TDB 
  -5.208799873064004E+02 -5.443514683552047E+02  1.566208644377631E+03
   1.341507718558976E-03 -1.420560665977884E-03 -4.757971504357466E-05
   5.797343974543885E-03  1.738000000000000E+03  7.186426367682974E-20
2463758.856000002 = A.D. 2033-Jun-10 08:32:38.4002 TDB 
  -4.339945372087046E+02 -6.227621828477755E+02  1.563476896307610E+03
   1.550372250984612E-03 -1.189245391537499E-03 -4.334184187070576E-05
   5.797343974543885E-03  1.738000000000000E+03 -6.387934549051532E-20
2463759.550000002 = A.D. 2033-Jun-11 01:12:00.0002 TDB 
  -3.357430671135352E+02 -6.863643934227144E+02  1.561033155421968E+03
   1.719811004461234E-03 -9.276771527737070E-04 -3.799403270597374E-05
   5.797343974543884E-03  1.738000000000000E+03  5.988688639735812E-20
2463760.244000002 = A.D. 2033-Jun-11 17:51:21.6002 TDB 
  -2.286243126673167E+02 -7.335400940068826E+02  1.558939977722610E+03
   1.845508253308730E-03 -6.425088554103210E-04 -3.167405478657820E-05
   5.797343974543884E-03  1.738000000000000E+03 -9.182655914261581E-20
2463760.938000002 = A.D. 2033-Jun-12 10:30:43.2002 TDB 
  -1.153628792692114E+02 -7.630891437184932E+02  1.557250899767181E+03
   1.924262039816540E-03 -3.409956511704530E-04 -2.454432364587052E-05
   5.797343974543884E-03  1.738000000000000E+03  1.117888546084018E-19
2463761.632000002 = A.D. 2033-Jun-13 03:10:04.8002 TDB 
   1.160149946748351E+00 -7.742598939177501E+02  1.556009084395903E+03
   1.954066231397772E-03 -3.080980010566682E-05 -1.678769273116485E-05
   5.797343974543884E-03  1.738000000000000E+03 -7.984918186314417E-21
2463762.326000002 = A.D. 2033-Jun-13 19:49:26.4002 TDB 
   1.179806158614716E+02 -7.667683670078410E+02  1.555246233121006E+03
   1.934161914768333E-03  2.801552200667079E-04 -8.602787774672789E-06
   5.797343974543884E-03  1.738000000000000E+03 -4.990573866446510E-20
2463763.020000002 = A.D. 2033-Jun-14 12:28:48.0002 TDB 
   2.321268119529004E+02 -7.408054929745492E+02  1.554981789202471E+03
   1.865056787736070E-03  5.839862928323448E-04 -1.989944180664734E-07
   5.797343974543883E-03  1.738000000000000E+03  7.959965316982184E-20
2463763.714000002 = A.D. 2033-Jun-15 05:08:09.6002 TDB 
   3.406952016033900E+02 -6.970322184933897E+02  1.555222449036346E+03
   1.748512050493266E-03  8.729527168067978E-04  8.208795658026173E-06
   5.797343974543884E-03  1.738000000000000E+03  1.726738557790492E-19
2463764.408000002 = A.D. 2033-Jun-15 21:47:31.2002 TDB 
   4.409243817561172E+02 -6.365626169733401E+02  1.555961993187828E+03
   1.587497151817672E-03  1.139703513144326E-03  1.640557469129422E-05
   5.797343974543884E-03  1.738000000000000E+03  4.790950911788649E-20
2463765.102000002 = A.D. 2033-Jun-16 14:26:52.8002 TDB 
   5.302653972011278E+02 -5.609354377644954E+02  1.557181441962074E+03
   1.386113587702098E-03  1.377454895900885E-03  2.418163475980729E-05
   5.797343974543883E-03  1.738000000000000E+03 -9.581901823577299E-20
